BEIDOU-2 IGSO-5         
1 37948U 11073A   26183.72937883 -.00000128  00000+0  00000+0 0  9990
2 37948  47.6496 271.3544 0114527 222.0502 141.5350  1.00270596 53296
LUCH-5A                 
1 37951U 11074B   26197.57100235 -.00000064  00000+0  00000+0 0  9995
2 37951   8.8266  73.3738 0002682  61.1694 172.4129  1.00273318 53349
BEIDOU-2 G5             
1 38091U 12008A   26197.85169834  .00000046  00000+0  00000+0 0  9999
2 38091   3.6456  69.5069 0007294 268.6163 321.8185  1.00270709 52669
BEIDOU-2 M3             
1 38250U 12018A   26197.18445535 -.00000076  00000+0  00000+0 0  9992
2 38250  55.7311 303.8980 0020973 272.2798  87.5098  1.86229676 96482
BEIDOU-2 M4             
1 38251U 12018B   26197.11680304 -.00000075  00000+0  00000+0 0  9990
2 38251  55.6311 303.1118 0012128 272.2948  87.5971  1.86229279 96487
SES-5                   
1 38652U 12036A   26197.82892022  .00000023  00000+0  00000+0 0  9997
2 38652   0.0434 324.9985 0002008 148.0675 124.9749  1.00271675 44753
BEIDOU-2 M6             
1 38775U 12050B   26196.82639704 -.00000044  00000+0  00000+0 0  9998
2 38775  56.5693  61.9476 0012890   1.6971 358.3817  1.86230913 93845
GSAT-10                 
1 38779U 12051B   26197.76086564 -.00000175  00000+0  00000+0 0  9992
2 38779   0.0870 264.4753 0007442 190.2508 196.7658  1.00272757 50394
NAVSTAR 67 (USA 239)    
1 38833U 12053A   26196.23587167  .00000004  00000+0  00000+0 0  9991
2 38833  53.5896 142.4502 0182026  66.2229 295.6325  2.00567906100005
GSAT0103 (GALILEO-FM3)  
1 38857U 12055A   26197.21850469 -.00000026  00000+0  00000+0 0  9991
2 38857  55.8227 100.7486 0003594 314.9576  45.0469  1.70473424 85502
BEIDOU-2 G6             
1 38953U 12059A   26197.78548563 -.00000188  00000+0  00000+0 0  9992
2 38953   4.4942  73.1994 0008744 327.1899 260.9917  1.00273423 50201
LUCH-5B                 
1 38977U 12061A   26197.83703071 -.00000151  00000+0  00000+0 0  9994
2 38977  10.5464  49.5833 0003896 147.3803  22.7470  1.00270341 49902
COSMOS 2485 [GLONASS-M] 
1 39155U 13019A   26197.47337300 -.00000016  00000+0  00000+0 0  9995
2 39155  65.4360  72.6223 0022636 231.0760 128.7981  2.13103151102904
NAVSTAR 68 (USA 242)    
1 39166U 13023A   26197.59935963 -.00000020  00000+0  00000+0 0  9999
2 39166  54.4817 267.7742 0141386  51.1132 310.2168  2.00563327 96472
IRNSS-1A                
1 39199U 13034A   26191.72043649  .00000047  00000+0  00000+0 0  9995
2 39199  35.7704  63.5328 0017567 183.4462 356.2994  1.00281941 47601
NAVSTAR 69 (USA 248)    
1 39533U 14008A   26196.60401446  .00000011  00000+0  00000+0 0  9995
2 39533  53.6578 148.1607 0084090 231.5482 127.6544  2.00561576 90259
ASTRA 5B                
1 39617U 14011B   26197.82308755  .00000126  00000+0  00000+0 0  9993
2 39617   0.0733 303.6605 0001929 180.1671 130.5948  1.00268933 44964
COSMOS 2492 [GLONASS-M] 
1 39620U 14012A   26195.55517278 -.00000062  00000+0  00000+0 0  9998
2 39620  65.2800 313.0063 0010322 317.7862  42.1441  2.13103205 95828
IRNSS-1B                
1 39635U 14017A   26196.71042329  .00000127  00000+0  00000+0 0  9999
2 39635  28.8748 239.9111 0022284 191.7753 172.7664  1.00275936 45085
LUCH-5V                 
1 39727U 14023A   26197.85233477 -.00000281  00000+0  00000+0 0  9992
2 39727   5.2041  69.4306 0002080  84.9481 181.8678  1.00273031 44659
NAVSTAR 70 (USA 251)    
1 39741U 14026A   26197.37869716 -.00000096  00000+0  00000+0 0  9993
2 39741  56.4825 330.3814 0038146 325.7541  33.9985  2.00558803 89125
COSMOS 2500 [GLONASS-M] 
1 40001U 14032A   26197.13235105 -.00000063  00000+0  00000+0 0  9998
2 40001  65.2141 312.6974 0008313 190.7170 169.2811  2.13105751 94071
NAVSTAR 71 (USA 256)    
1 40105U 14045A   26197.47040321 -.00000025  00000+0  00000+0 0  9996
2 40105  55.3721  87.2982 0034437 118.3856 242.0173  2.00560343 86662
GSAT0201 (GALILEO 5)    
1 40128U 14050A   26196.98314950 -.00000037  00000+0  00000+0 0  9997
2 40128  48.8430 272.2541 1678710 180.5497 179.3011  1.85519415 78850
GSAT0202 (GALILEO 6)    
1 40129U 14050B   26197.77756751 -.00000044  00000+0  00000+0 0  9993
2 40129  48.8597 271.3072 1679996 181.2736 178.2966  1.85520382 81031
IRNSS-1C                
1 40269U 14061A   26196.83150177 -.00000176  00000+0  00000+0 0  9992
2 40269   6.5880  88.3869 0022069   5.5373 222.1370  1.00272233 42973
NAVSTAR 72 (USA 258)    
1 40294U 14068A   26196.84010089 -.00000072  00000+0  00000+0 0  9990
2 40294  57.0073  29.8518 0067414  72.3241 288.4563  2.00553234 85785
COSMOS 2501 [GLONASS-K] 
1 40315U 14075A   26195.04843601  .00000065  00000+0  00000+0 0  9998
2 40315  63.6185 189.4424 0022586 212.6579 147.2095  2.13101105 90428
NAVSTAR 73 (USA 260)    
1 40534U 15013A   26197.48021406  .00000040  00000+0  00000+0 0  9998
2 40534  53.1660 202.9660 0110409  40.3942 320.4327  2.00549572 82411
GSAT0203 (GALILEO 7)    
1 40544U 15017A   26195.78217272 -.00000099  00000+0  00000+0 0  9997
2 40544  56.7770 340.8444 0002640 255.9596 103.9964  1.70476177 69671
GSAT0204 (GALILEO 8)    
1 40545U 15017B   26197.21121104 -.00000102  00000+0  00000+0 0  9991
2 40545  56.7841 340.8241 0002843 234.4968 125.4630  1.70475700 32744
